{"type": "FeatureCollection", "features": [ {"type": "Feature", "properties": {"norad_id": 31384, "name": "FENGYUN 1C DEB", "group": "fengyun-1c-debris", "lat": -46.30561042715691, "lon": 114.70948053381248, "alt_km": 1245.5808945799345, "timestamp": "2025-12-02T15:49:07.472105+00:00", "meta": {"OBJECT_NAME": "FENGYUN 1C DEB", "OBJECT_ID": "1999-025BSQ", "EPOCH": "2025-11-30T21:25:39.153792", "MEAN_MOTION": 13.85935935, "ECCENTRICITY": 0.04406256, "INCLINATION": 98.4563, "RA_OF_ASC_NODE": 302.0658, "ARG_OF_PERICENTER": 74.1899, "MEAN_ANOMALY": 342.7882, "EPHEMERIS_TYPE": 0, "CLASSIFICATION_TYPE": "U", "NORAD_CAT_ID": 31384, "ELEMENT_SET_NO": 999, "REV_AT_EPOCH": 92860, "BSTAR": 0.0021210825, "MEAN_MOTION_DOT": 5.211e-05, "MEAN_MOTION_DDOT": 0}, "tle": {"line1": "1 31384U 99025BSQ 25334.89281428  .00005211  00000+0  21211-2 0  9990", "line2": "2 31384  98.4563 302.0658 0440625  74.1899 342.7882 13.85935935928609"}}, "geometry": {"type": "Point", "coordinates": [114.70948053381248, -46.30561042715691]}}, {"type": "Feature", "properties": {"norad_id": 31385, "name": "FENGYUN 1C DEB", "group": "fengyun-1c-debris", "lat": 74.14806139211967, "lon": 32.553003926343244, "alt_km": 643.1746923567052, "timestamp": "2025-12-02T15:49:07.472115+00:00", "meta": {"OBJECT_NAME": "FENGYUN 1C DEB", "OBJECT_ID": "1999-025BSR", "EPOCH": "2025-12-01T00:22:37.155648", "MEAN_MOTION": 14.43974622, "ECCENTRICITY": 0.01349077, "INCLINATION": 98.9546, "RA_OF_ASC_NODE": 64.5546, "ARG_OF_PERICENTER": 90.2451, "MEAN_ANOMALY": 88.8217, "EPHEMERIS_TYPE": 0, "CLASSIFICATION_TYPE": "U", "NORAD_CAT_ID": 31385, "ELEMENT_SET_NO": 999, "REV_AT_EPOCH": 98445, "BSTAR": 0.00018371815, "MEAN_MOTION_DOT": 6.48e-06, "MEAN_MOTION_DDOT": 0}, "tle": {"line1": "1 31385U 99025BSR 25335.01570782  .00000648  00000+0  18372-3 0  9994", "line2": "2 31385  98.9546  64.5546 0134907  90.2451  88.8217 14.43974622984454"}}, "geometry": {"type": "Point", "coordinates": [32.553003926343244, 74.14806139211967]}}, {"type": "Feature", "properties": {"norad_id": 31386, "name": "FENGYUN 1C DEB", "group": "fengyun-1c-debris", "lat": 73.14901154245989, "lon": -36.812143536079866, "alt_km": 1013.1982447106011, "timestamp": "2025-12-02T15:49:07.472125+00:00", "meta": {"OBJECT_NAME": "FENGYUN 1C DEB", "OBJECT_ID": "1999-025BSS", "EPOCH": "2025-11-30T23:36:27.682272", "MEAN_MOTION": 13.85933209, "ECCENTRICITY": 0.01976819, "INCLINATION": 98.4408, "RA_OF_ASC_NODE": 351.0324, "ARG_OF_PERICENTER": 316.7324, "MEAN_ANOMALY": 41.8452, "EPHEMERIS_TYPE": 0, "CLASSIFICATION_TYPE": "U", "NORAD_CAT_ID": 31386, "ELEMENT_SET_NO": 999, "REV_AT_EPOCH": 93699, "BSTAR": 0.0021212341, "MEAN_MOTION_DOT": 2.802e-05, "MEAN_MOTION_DDOT": 0}, "tle": {"line1": "1 31386U 99025BSS 25334.98365373  .00002802  00000+0  21212-2 0  9998", "line2": "2 31386  98.4408 351.0324 0197681 316.7324  41.8452 13.85933209936995"}}, "geometry": {"type": "Point", "coordinates": [-36.812143536079866, 73.14901154245989]}}, {"type": "Feature", "properties": {"norad_id": 31387, "name": "FENGYUN 1C DEB", "group": "fengyun-1c-debris", "lat": 29.17128747102198, "lon": 40.0293019842019, "alt_km": 729.7660022596983, "timestamp": "2025-12-02T15:49:07.472136+00:00", "meta": {"OBJECT_NAME": "FENGYUN 1C DEB", "OBJECT_ID": "1999-025BST", "EPOCH": "2025-12-02T03:12:14.005152", "MEAN_MOTION": 14.13550702, "ECCENTRICITY": 0.02412961, "INCLINATION": 99.1686, "RA_OF_ASC_NODE": 214.3176, "ARG_OF_PERICENTER": 201.1346, "MEAN_ANOMALY": 157.9723, "EPHEMERIS_TYPE": 0, "CLASSIFICATION_TYPE": "U", "NORAD_CAT_ID": 31387, "ELEMENT_SET_NO": 999, "REV_AT_EPOCH": 96147, "BSTAR": 0.00026926537, "MEAN_MOTION_DOT": 6.2e-06, "MEAN_MOTION_DDOT": 0}, "tle": {"line1": "1 31387U 99025BST 25336.13349543  .00000620  00000+0  26927-3 0  9994", "line2": "2 31387  99.1686 214.3176 0241296 201.1346 157.9723 14.13550702961477"}}, "geometry": {"type": "Point", "coordinates": [40.0293019842019, 29.17128747102198]}}, {"type": "Feature", "properties": {"norad_id": 31388, "name": "FENGYUN 1C DEB", "group": "fengyun-1c-debris", "lat": -54.77656881219664, "lon": 132.20068435759558, "alt_km": 841.9464958587068, "timestamp": "2025-12-02T15:49:07.472146+00:00", "meta": {"OBJECT_NAME": "FENGYUN 1C DEB", "OBJECT_ID": "1999-025BSU", "EPOCH": "2025-12-02T04:44:39.153696", "MEAN_MOTION": 14.07418192, "ECCENTRICITY": 0.00461283, "INCLINATION": 98.8042, "RA_OF_ASC_NODE": 324.4313, "ARG_OF_PERICENTER": 231.0609, "MEAN_ANOMALY": 187.8936, "EPHEMERIS_TYPE": 0, "CLASSIFICATION_TYPE": "U", "NORAD_CAT_ID": 31388, "ELEMENT_SET_NO": 999, "REV_AT_EPOCH": 96293, "BSTAR": 0.00027975407, "MEAN_MOTION_DOT": 4.32e-06, "MEAN_MOTION_DDOT": 0}, "tle": {"line1": "1 31388U 99025BSU 25336.19767539  .00000432  00000+0  27975-3 0  9995", "line2": "2 31388  98.8042 324.4313 0046128 231.0609 187.8936 14.07418192962936"}}, "geometry": {"type": "Point", "coordinates": [132.20068435759558, -54.77656881219664]}}, {"type": "Feature", "properties": {"norad_id": 31389, "name": "FENGYUN 1C DEB", "group": "fengyun-1c-debris", "lat": 33.7604579378739, "lon": 135.02085595188552, "alt_km": 712.0148566867765, "timestamp": "2025-12-02T15:49:07.472157+00:00", "meta": {"OBJECT_NAME": "FENGYUN 1C DEB", "OBJECT_ID": "1999-025BSV", "EPOCH": "2025-12-01T10:18:37.694016", "MEAN_MOTION": 14.60124767, "ECCENTRICITY": 0.00307094, "INCLINATION": 99.0434, "RA_OF_ASC_NODE": 139.7919, "ARG_OF_PERICENTER": 222.1162, "MEAN_ANOMALY": 192.9041, "EPHEMERIS_TYPE": 0, "CLASSIFICATION_TYPE": "U", "NORAD_CAT_ID": 31389, "ELEMENT_SET_NO": 999, "REV_AT_EPOCH": 96332, "BSTAR": 0.0064623005, "MEAN_MOTION_DOT": 0.00031386, "MEAN_MOTION_DDOT": 0}, "tle": {"line1": "1 31389U 99025BSV 25335.42960294  .00031386  00000+0  64623-2 0  9996", "line2": "2 31389  99.0434 139.7919 0030709 222.1162 192.9041 14.60124767963326"}}, "geometry": {"type": "Point", "coordinates": [135.02085595188552, 33.7604579378739]}}, {"type": "Feature", "properties": {"norad_id": 31410, "name": "FENGYUN 1C DEB", "group": "fengyun-1c-debris", "lat": -13.188192838737484, "lon": 139.89737932977846, "alt_km": 678.9312916342869, "timestamp": "2025-12-02T15:49:07.472167+00:00", "meta": {"OBJECT_NAME": "FENGYUN 1C DEB", "OBJECT_ID": "1999-025BSW", "EPOCH": "2025-12-01T10:16:43.576896", "MEAN_MOTION": 14.44660711, "ECCENTRICITY": 0.01107684, "INCLINATION": 98.8365, "RA_OF_ASC_NODE": 136.529, "ARG_OF_PERICENTER": 320.6498, "MEAN_ANOMALY": 107.8693, "EPHEMERIS_TYPE": 0, "CLASSIFICATION_TYPE": "U", "NORAD_CAT_ID": 31410, "ELEMENT_SET_NO": 999, "REV_AT_EPOCH": 97588, "BSTAR": 0.0008135917, "MEAN_MOTION_DOT": 2.987e-05, "MEAN_MOTION_DDOT": 0}, "tle": {"line1": "1 31410U 99025BSW 25335.42828214  .00002987  00000+0  81359-3 0  9997", "line2": "2 31410  98.8365 136.5290 0110768 320.6498 107.8693 14.44660711975886"}}, "geometry": {"type": "Point", "coordinates": [139.89737932977846, -13.188192838737484]}}, {"type": "Feature", "properties": {"norad_id": 31411, "name": "FENGYUN 1C DEB", "group": "fengyun-1c-debris", "lat": -9.557197220778281, "lon": 39.48323346811993, "alt_km": 772.5337408219593, "timestamp": "2025-12-02T15:49:07.472177+00:00", "meta": {"OBJECT_NAME": "FENGYUN 1C DEB", "OBJECT_ID": "1999-025BSX", "EPOCH": "2025-11-30T22:39:36.746784", "MEAN_MOTION": 14.27939741, "ECCENTRICITY": 0.0100445, "INCLINATION": 98.6702, "RA_OF_ASC_NODE": 36.3088, "ARG_OF_PERICENTER": 289.6647, "MEAN_ANOMALY": 248.9502, "EPHEMERIS_TYPE": 0, "CLASSIFICATION_TYPE": "U", "NORAD_CAT_ID": 31411, "ELEMENT_SET_NO": 999, "REV_AT_EPOCH": 94311, "BSTAR": 0.00048982088, "MEAN_MOTION_DOT": 1.236e-05, "MEAN_MOTION_DDOT": 0}, "tle": {"line1": "1 31411U 99025BSX 25334.94417531  .00001236  00000+0  48982-3 0  9991", "line2": "2 31411  98.6702  36.3088 0100445 289.6647 248.9502 14.27939741943113"}}, "geometry": {"type": "Point", "coordinates": [39.48323346811993, -9.557197220778281]}}, {"type": "Feature", "properties": {"norad_id": 31412, "name": "FENGYUN 1C DEB", "group": "fengyun-1c-debris", "lat": -81.24577226094566, "lon": 23.39794171936548, "alt_km": 872.933768586985, "timestamp": "2025-12-02T15:49:07.472188+00:00", "meta": {"OBJECT_NAME": "FENGYUN 1C DEB", "OBJECT_ID": "1999-025BSY", "EPOCH": "2025-11-28T06:38:13.979616", "MEAN_MOTION": 14.09684254, "ECCENTRICITY": 0.00844356, "INCLINATION": 98.5498, "RA_OF_ASC_NODE": 276.8981, "ARG_OF_PERICENTER": 16.021, "MEAN_ANOMALY": 344.3602, "EPHEMERIS_TYPE": 0, "CLASSIFICATION_TYPE": "U", "NORAD_CAT_ID": 31412, "ELEMENT_SET_NO": 999, "REV_AT_EPOCH": 60788, "BSTAR": 0.0021882226, "MEAN_MOTION_DOT": 3.927e-05, "MEAN_MOTION_DDOT": 0}, "tle": {"line1": "1 31412U 99025BSY 25332.27655069  .00003927  00000+0  21882-2 0  9994", "line2": "2 31412  98.5498 276.8981 0084435  16.0210 344.3602 14.09684254607885"}}, "geometry": {"type": "Point", "coordinates": [23.39794171936548, -81.24577226094566]}}, {"type": "Feature", "properties": {"norad_id": 31415, "name": "FENGYUN 1C DEB", "group": "fengyun-1c-debris", "lat": 80.32956651602382, "lon": -158.02567036660147, "alt_km": 738.2016788906494, "timestamp": "2025-12-02T15:49:07.472198+00:00", "meta": {"OBJECT_NAME": "FENGYUN 1C DEB", "OBJECT_ID": "1999-025BTB", "EPOCH": "2025-11-30T02:58:22.044864", "MEAN_MOTION": 14.30472505, "ECCENTRICITY": 0.00637436, "INCLINATION": 99.637, "RA_OF_ASC_NODE": 284.8171, "ARG_OF_PERICENTER": 110.0761, "MEAN_ANOMALY": 250.7294, "EPHEMERIS_TYPE": 0, "CLASSIFICATION_TYPE": "U", "NORAD_CAT_ID": 31415, "ELEMENT_SET_NO": 999, "REV_AT_EPOCH": 62650, "BSTAR": 0.0013587885, "MEAN_MOTION_DOT": 3.567e-05, "MEAN_MOTION_DDOT": 0}, "tle": {"line1": "1 31415U 99025BTB 25334.12386626  .00003567  00000+0  13588-2 0  9997", "line2": "2 31415  99.6370 284.8171 0063743 110.0761 250.7294 14.30472505626509"}}, "geometry": {"type": "Point", "coordinates": [-158.02567036660147, 80.32956651602382]}}]}